start=new Date('2022-04-24T00:00:00.000Z').valueOf();
sats=[{"OBJECT_ID":"2021-036AB","LAUNCH_DATE":"2021-04-29","NORAD_CAT_ID":"48301","REV_AT_EPOCH":"5464","SEMIMAJOR_AXIS":"6925.337","CENTER_NAME":"EARTH","SITE":"AFETR","DECAY_DATE":null,"RA_OF_ASC_NODE":"331.2981","BSTAR":"0.00002706400000","CLASSIFICATION_TYPE":"U","MEAN_MOTION_DDOT":"0.0000000000000","GP_ID":"201880291","ECCENTRICITY":"0.00013960","APOAPSIS":"548.169","COUNTRY_CODE":"US","MEAN_ELEMENT_THEORY":"SGP4","OBJECT_NAME":"STARLINK-2537","TLE_LINE2":"2 48301  53.0552 331.2981 0001396  69.9671 290.1469 15.06403843 54646","EPHEMERIS_TYPE":"0","PERIAPSIS":"546.235","ELEMENT_SET_NO":"999","FILE":"3412883","OBJECT_TYPE":"PAYLOAD","ARG_OF_PERICENTER":"69.9671","MEAN_ANOMALY":"290.1469","MEAN_MOTION_DOT":"0.00000122","RCS_SIZE":"LARGE","PERIOD":"95.592","MEAN_MOTION":"15.06403843","INCLINATION":"53.0552","TIME_SYSTEM":"UTC","REF_FRAME":"TEME","TLE_LINE1":"1 48301U 21036AB  22113.02108352  .00000122  00000-0  27064-4 0  9996","EPOCH":"2022-04-23T00:30:21.616128"},{"CENTER_NAME":"EARTH","SITE":"AFETR","BSTAR":"0.00006084700000","CLASSIFICATION_TYPE":"U","DECAY_DATE":null,"RA_OF_ASC_NODE":"331.9198","MEAN_MOTION_DDOT":"0.0000000000000","OBJECT_ID":"2021-036AC","NORAD_CAT_ID":"48302","LAUNCH_DATE":"2021-04-29","REV_AT_EPOCH":"5462","SEMIMAJOR_AXIS":"6925.349","COUNTRY_CODE":"US","APOAPSIS":"548.265","TLE_LINE2":"2 48302  53.0554 331.9198 0001517  57.6909 302.4227 15.06399714 54627","OBJECT_NAME":"STARLINK-2556","MEAN_ELEMENT_THEORY":"SGP4","GP_ID":"201880541","ECCENTRICITY":"0.00015170","ARG_OF_PERICENTER":"57.6909","MEAN_ANOMALY":"302.4227","MEAN_MOTION_DOT":"0.00000625","RCS_SIZE":"LARGE","PERIOD":"95.592","PERIAPSIS":"546.164","EPHEMERIS_TYPE":"0","FILE":"3412883","ELEMENT_SET_NO":"999","OBJECT_TYPE":"PAYLOAD","REF_FRAME":"TEME","TLE_LINE1":"1 48302U 21036AC  22112.88470506  .00000625  00000-0  60847-4 0  9997","EPOCH":"2022-04-22T21:13:58.517184","MEAN_MOTION":"15.06399714","INCLINATION":"53.0554","TIME_SYSTEM":"UTC"},{"ARG_OF_PERICENTER":"68.0410","MEAN_ANOMALY":"292.0750","MEAN_MOTION_DOT":"-0.00002461","RCS_SIZE":"LARGE","PERIOD":"95.592","EPHEMERIS_TYPE":"0","PERIAPSIS":"546.106","ELEMENT_SET_NO":"999","FILE":"3412959","OBJECT_TYPE":"PAYLOAD","REF_FRAME":"TEME","TLE_LINE1":"1 48303U 21036AD  22113.61084107 -.00002461  00000-0 -14637-3 0  9995","EPOCH":"2022-04-23T14:39:36.668448","MEAN_MOTION":"15.06396087","INCLINATION":"53.0542","TIME_SYSTEM":"UTC","CENTER_NAME":"EARTH","SITE":"AFETR","DECAY_DATE":null,"RA_OF_ASC_NODE":"328.6509","BSTAR":"-0.00014637000000","CLASSIFICATION_TYPE":"U","MEAN_MOTION_DDOT":"0.0000000000000","OBJECT_ID":"2021-036AD","NORAD_CAT_ID":"48303","LAUNCH_DATE":"2021-04-29","REV_AT_EPOCH":"5532","SEMIMAJOR_AXIS":"6925.361","APOAPSIS":"548.345","COUNTRY_CODE":"US","MEAN_ELEMENT_THEORY":"SGP4","OBJECT_NAME":"STARLINK-2530","TLE_LINE2":"2 48303  53.0542 328.6509 0001616  68.0410 292.0750 15.06396087 55320","GP_ID":"201886642","ECCENTRICITY":"0.00016160"},{"ARG_OF_PERICENTER":"55.2524","MEAN_MOTION_DOT":"-0.00001154","MEAN_ANOMALY":"304.8613","RCS_SIZE":"LARGE","PERIOD":"95.593","EPHEMERIS_TYPE":"0","PERIAPSIS":"546.155","FILE":"3412948","ELEMENT_SET_NO":"999","OBJECT_TYPE":"PAYLOAD","REF_FRAME":"TEME","TLE_LINE1":"1 48304U 21036AE  22113.60715802 -.00001154  00000-0 -58618-4 0  9994","EPOCH":"2022-04-23T14:34:18.452928","MEAN_MOTION":"15.06391498","INCLINATION":"53.0534","TIME_SYSTEM":"UTC","CENTER_NAME":"EARTH","SITE":"AFETR","DECAY_DATE":null,"RA_OF_ASC_NODE":"328.6685","BSTAR":"-0.00005861800000","CLASSIFICATION_TYPE":"U","MEAN_MOTION_DDOT":"0.0000000000000","OBJECT_ID":"2021-036AE","LAUNCH_DATE":"2021-04-29","NORAD_CAT_ID":"48304","REV_AT_EPOCH":"5532","SEMIMAJOR_AXIS":"6925.375","COUNTRY_CODE":"US","APOAPSIS":"548.324","OBJECT_NAME":"STARLINK-2524","MEAN_ELEMENT_THEORY":"SGP4","TLE_LINE2":"2 48304  53.0534 328.6685 0001566  55.2524 304.8613 15.06391498 55326","GP_ID":"201886248","ECCENTRICITY":"0.00015660"},{"PERIAPSIS":"546.264","EPHEMERIS_TYPE":"0","FILE":"3412949","ELEMENT_SET_NO":"999","OBJECT_TYPE":"PAYLOAD","ARG_OF_PERICENTER":"68.5268","MEAN_MOTION_DOT":"-0.00001195","MEAN_ANOMALY":"291.5872","RCS_SIZE":"LARGE","PERIOD":"95.593","MEAN_MOTION":"15.06390105","INCLINATION":"53.0559","TIME_SYSTEM":"UTC","REF_FRAME":"TEME","TLE_LINE1":"1 48305U 21036AF  22113.66981859 -.00001195  00000-0 -61377-4 0  9999","EPOCH":"2022-04-23T16:04:32.326176","OBJECT_ID":"2021-036AF","LAUNCH_DATE":"2021-04-29","NORAD_CAT_ID":"48305","REV_AT_EPOCH":"5533","SEMIMAJOR_AXIS":"6925.379","CENTER_NAME":"EARTH","SITE":"AFETR","BSTAR":"-0.00006137700000","CLASSIFICATION_TYPE":"U","RA_OF_ASC_NODE":"328.3789","DECAY_DATE":null,"MEAN_MOTION_DDOT":"0.0000000000000","ECCENTRICITY":"0.00014150","GP_ID":"201885765","APOAPSIS":"548.224","COUNTRY_CODE":"US","TLE_LINE2":"2 48305  53.0559 328.3789 0001415  68.5268 291.5872 15.06390105 55335","MEAN_ELEMENT_THEORY":"SGP4","OBJECT_NAME":"STARLINK-2519"},{"TLE_LINE2":"2 48306  53.0509 329.8902 0002174  71.5622 288.5603 15.06393878 54691","OBJECT_NAME":"STARLINK-2523","MEAN_ELEMENT_THEORY":"SGP4","APOAPSIS":"548.738","COUNTRY_CODE":"US","GP_ID":"201881041","ECCENTRICITY":"0.00021740","MEAN_MOTION_DDOT":"0.0000000000000","CLASSIFICATION_TYPE":"U","BSTAR":"-0.00003314800000","DECAY_DATE":null,"RA_OF_ASC_NODE":"329.8902","SITE":"AFETR","CENTER_NAME":"EARTH","SEMIMAJOR_AXIS":"6925.367","REV_AT_EPOCH":"5469","NORAD_CAT_ID":"48306","LAUNCH_DATE":"2021-04-29","OBJECT_ID":"2021-036AG","EPOCH":"2022-04-23T08:01:31.773792","TLE_LINE1":"1 48306U 21036AG  22113.33439553 -.00000775  00000-0 -33148-4 0  9991","REF_FRAME":"TEME","TIME_SYSTEM":"UTC","INCLINATION":"53.0509","MEAN_MOTION":"15.06393878","PERIOD":"95.593","RCS_SIZE":"LARGE","MEAN_ANOMALY":"288.5603","MEAN_MOTION_DOT":"-0.00000775","ARG_OF_PERICENTER":"71.5622","OBJECT_TYPE":"PAYLOAD","ELEMENT_SET_NO":"999","FILE":"3412883","PERIAPSIS":"545.727","EPHEMERIS_TYPE":"0"},{"OBJECT_TYPE":"PAYLOAD","FILE":"3412952","ELEMENT_SET_NO":"999","PERIAPSIS":"546.139","EPHEMERIS_TYPE":"0","PERIOD":"95.592","RCS_SIZE":"LARGE","MEAN_ANOMALY":"294.7384","MEAN_MOTION_DOT":"0.00000570","ARG_OF_PERICENTER":"65.3765","TIME_SYSTEM":"UTC","INCLINATION":"53.0557","MEAN_MOTION":"15.06401373","EPOCH":"2022-04-23T14:18:22.360032","TLE_LINE1":"1 48307U 21036AH  22113.59609213  .00000570  00000-0  57187-4 0  9992","REF_FRAME":"TEME","SEMIMAJOR_AXIS":"6925.344","REV_AT_EPOCH":"5532","NORAD_CAT_ID":"48307","LAUNCH_DATE":"2021-04-29","OBJECT_ID":"2021-036AH","MEAN_MOTION_DDOT":"0.0000000000000","BSTAR":"0.00005718700000","CLASSIFICATION_TYPE":"U","DECAY_DATE":null,"RA_OF_ASC_NODE":"328.7152","SITE":"AFETR","CENTER_NAME":"EARTH","GP_ID":"201886317","ECCENTRICITY":"0.00015450","TLE_LINE2":"2 48307  53.0557 328.7152 0001545  65.3765 294.7384 15.06401373 55326","MEAN_ELEMENT_THEORY":"SGP4","OBJECT_NAME":"STARLINK-2528","APOAPSIS":"548.279","COUNTRY_CODE":"US"},{"MEAN_MOTION_DDOT":"0.0000000000000","BSTAR":"0.00027839000000","CLASSIFICATION_TYPE":"U","RA_OF_ASC_NODE":"328.7299","DECAY_DATE":null,"SITE":"AFETR","CENTER_NAME":"EARTH","SEMIMAJOR_AXIS":"6925.437","REV_AT_EPOCH":"5532","LAUNCH_DATE":"2021-04-29","NORAD_CAT_ID":"48308","OBJECT_ID":"2021-036AJ","TLE_LINE2":"2 48308  53.0538 328.7299 0001809  66.5718 293.5461 15.06371109 55328","OBJECT_NAME":"STARLINK-2532","MEAN_ELEMENT_THEORY":"SGP4","APOAPSIS":"548.555","COUNTRY_CODE":"US","ECCENTRICITY":"0.00018090","GP_ID":"201886667","PERIOD":"95.594","RCS_SIZE":"LARGE","MEAN_MOTION_DOT":"0.00003864","MEAN_ANOMALY":"293.5461","ARG_OF_PERICENTER":"66.5718","OBJECT_TYPE":"PAYLOAD","FILE":"3412960","ELEMENT_SET_NO":"999","PERIAPSIS":"546.049","EPHEMERIS_TYPE":"0","EPOCH":"2022-04-23T14:13:04.688832","TLE_LINE1":"1 48308U 21036AJ  22113.59241538  .00003864  00000-0  27839-3 0  9994","REF_FRAME":"TEME","TIME_SYSTEM":"UTC","INCLINATION":"53.0538","MEAN_MOTION":"15.06371109"},{"TLE_LINE1":"1 48309U 21036AK  22113.32333796  .00000037  00000-0  21393-4 0  9993","REF_FRAME":"TEME","EPOCH":"2022-04-23T07:45:36.399744","MEAN_MOTION":"15.06395284","TIME_SYSTEM":"UTC","INCLINATION":"53.0554","MEAN_ANOMALY":"288.7901","MEAN_MOTION_DOT":"0.00000037","ARG_OF_PERICENTER":"71.3293","PERIOD":"95.592","RCS_SIZE":"LARGE","PERIAPSIS":"545.923","EPHEMERIS_TYPE":"0","OBJECT_TYPE":"PAYLOAD","ELEMENT_SET_NO":"999","FILE":"3412883","TLE_LINE2":"2 48309  53.0554 329.9429 0001884  71.3293 288.7901 15.06395284 54694","OBJECT_NAME":"STARLINK-2517","MEAN_ELEMENT_THEORY":"SGP4","COUNTRY_CODE":"US","APOAPSIS":"548.533","GP_ID":"201880292","ECCENTRICITY":"0.00018840","SITE":"AFETR","CENTER_NAME":"EARTH","MEAN_MOTION_DDOT":"0.0000000000000","BSTAR":"0.00002139300000","CLASSIFICATION_TYPE":"U","DECAY_DATE":null,"RA_OF_ASC_NODE":"329.9429","LAUNCH_DATE":"2021-04-29","NORAD_CAT_ID":"48309","OBJECT_ID":"2021-036AK","SEMIMAJOR_AXIS":"6925.363","REV_AT_EPOCH":"5469"},{"INCLINATION":"53.0559","TIME_SYSTEM":"UTC","MEAN_MOTION":"15.06391848","EPOCH":"2022-04-23T07:40:17.876640","REF_FRAME":"TEME","TLE_LINE1":"1 48310U 21036AL  22113.31965135 -.00000414  00000-0 -88867-5 0  9993","ELEMENT_SET_NO":"999","FILE":"3412883","OBJECT_TYPE":"PAYLOAD","PERIAPSIS":"546.218","EPHEMERIS_TYPE":"0","RCS_SIZE":"LARGE","PERIOD":"95.593","ARG_OF_PERICENTER":"81.5746","MEAN_ANOMALY":"278.5410","MEAN_MOTION_DOT":"-0.00000414","ECCENTRICITY":"0.00014740","GP_ID":"201880542","COUNTRY_CODE":"US","APOAPSIS":"548.259","TLE_LINE2":"2 48310  53.0559 329.9485 0001474  81.5746 278.5410 15.06391848 54698","OBJECT_NAME":"STARLINK-2536","MEAN_ELEMENT_THEORY":"SGP4","REV_AT_EPOCH":"5469","SEMIMAJOR_AXIS":"6925.374","OBJECT_ID":"2021-036AL","NORAD_CAT_ID":"48310","LAUNCH_DATE":"2021-04-29","BSTAR":"-0.00000888670000","CLASSIFICATION_TYPE":"U","RA_OF_ASC_NODE":"329.9485","DECAY_DATE":null,"MEAN_MOTION_DDOT":"0.0000000000000","CENTER_NAME":"EARTH","SITE":"AFETR"}];
